satname,norad_id,inclination_deg,eccentricity,mean_motion_rev_per_day,perigee_km,apogee_km,l1,l2
STARLINK-1351,45697,53.0406,0.0001048,15.70248635,357.47985721976784,358.8917904836471,1 45697U 20035AS  26198.99753916  .00037352  00000+0  30487-3 0  9990,2 45697  53.0406 104.2871 0001048  21.8384 338.2677 15.70248635339746
STARLINK-1400,45700,53.0414,0.0001556,15.75208427,342.99217311643133,345.0841140211096,1 45700U 20035AV  26199.76751676  .00047918  00000+0  31536-3 0  9997,2 45700  53.0414 102.2159 0001556 147.0881 213.0235 15.75208427339834
STARLINK-1403,45701,53.1524,0.0004746,15.37194636,451.16685304624025,457.65230625964705,1 45701U 20035AW  26199.82852506  .00029301  00000+0  80008-3 0  9993,2 45701  53.1524 145.3383 0004746  43.1981 316.9394 15.37194636339255
STARLINK-1407,45703,53.027,0.0004183,15.81284392,324.0027877806506,329.61214432094766,1 45703U 20035AY  26199.77610536  .00066473  00000+0  33121-3 0  9999,2 45703  53.0270  26.6842 0004183 189.4503 170.6440 15.81284392340891
STARLINK-1423,45710,53.0401,0.0003054,15.73676276,346.3463474069795,350.4549165926055,1 45710U 20035BF  26199.75378521  .00042575  00000+0  29997-3 0  9993,2 45710  53.0401  98.6262 0003054 191.9272 168.1675 15.73676276339872
STARLINK-1433,45711,53.0411,0.0001201,15.79604395,330.75484293090085,332.36651231306496,1 45711U 20035BG  26199.83778890  .00063174  00000+0  34037-3 0  9995,2 45711  53.0411  95.7462 0001201 188.8371 171.2629 15.79604395339920
STARLINK-1434,45712,53.0487,0.000306,15.37651056,450.96710023994547,455.1477912407381,1 45712U 20035BH  26199.79180545  .00027128  00000+0  73097-3 0  9993,2 45712  53.0487 127.4799 0003060  99.2783 260.8565 15.37651056339493
STARLINK-1465,45731,53.0425,0.0002642,15.72885092,348.8783930723457,352.4338873676379,1 45731U 20038B   26199.71281764  .00043260  00000+0  31517-3 0  9990,2 45731  53.0425 303.3040 0002642 328.4124  31.6735 15.72885092336859
STARLINK-1471,45735,53.0423,0.0002805,15.56180295,396.8229167304935,400.62473565398614,1 45735U 20038F   26199.47032690  .00038076  00000+0  53833-3 0  9993,2 45735  53.0423 232.1912 0002805 359.1656   0.9349 15.56180295337845
STARLINK-1480,45741,53.0457,0.0001766,15.69333646,359.6138497628126,361.99404370520006,1 45741U 20038M   26199.27139128  .00035237  00000+0  29903-3 0  9999,2 45741  53.0457 300.1623 0001766 129.8531 230.2641 15.69333646336872
STARLINK-1500,45744,53.0346,0.0002539,15.41120456,441.0694147706845,444.5330872145387,1 45744U 20038Q   26199.67633485  .00014670  00000+0  35797-3 0  9997,2 45744  53.0346 295.2283 0002539 340.8463  19.2445 15.41120456336977
STARLINK-1504,45746,53.0173,0.0002215,15.61757355,381.0831922725456,384.07819020976603,1 45746U 20038S   26199.26900101  .00020757  00000+0  24102-3 0  9997,2 45746  53.0173 228.0764 0002215   2.6266 357.4758 15.61757355337869
STARLINK-1506,45747,53.0758,0.0002982,15.2933545,475.7532361599042,479.84211560059885,1 45747U 20038T   26199.68402168  .00001602  00000+0  67905-4 0  9991,2 45747  53.0758 314.8775 0002982 334.1025  25.9824 15.29335450336718
STARLINK-1464,45751,53.0457,0.0001965,15.56285734,397.086139654557,399.74932566449206,1 45751U 20038X   26199.67515953  .00016374  00000+0  23514-3 0  9991,2 45751  53.0457 294.8504 0001965 133.0207 227.0969 15.56285734336987
STARLINK-1477,45754,53.0508,6.94e-05,15.2094365,502.51538500147853,503.47048583651485,1 45754U 20038AA  26199.08741633  .00018584  00000+0  84131-3 0  9992,2 45754  53.0508 337.2312 0000694  20.5791 339.5232 15.20943650336332
STARLINK-1478,45755,53.044,0.0003868,15.75591972,340.34746839524723,345.5468991198022,1 45755U 20038AB  26199.24749077  .00050134  00000+0  32413-3 0  9994,2 45755  53.0440 276.6007 0003868  11.8360 348.2749 15.75591972337186
STARLINK-1493,45759,53.0441,0.0002374,15.69203423,359.57685676314486,362.77668294107116,1 45759U 20038AF  26199.78796178  .00036314  00000+0  30962-3 0  9992,2 45759  53.0441 285.1866 0002374 115.0091 245.1172 15.69203423337110
STARLINK-1502,45764,53.0427,0.0003109,15.68324185,361.5993066748588,365.79137802533114,1 45764U 20038AL  26198.66483080  .00032311  00000+0  28625-3 0  9995,2 45764  53.0427 294.9337 0003109  11.1225 348.9859 15.68324185336899
STARLINK-1470,45772,53.0419,0.0001338,15.38343122,450.09475184705843,451.9222311805879,1 45772U 20038AU  26199.22803756  .00022608  00000+0  59779-3 0  9995,2 45772  53.0419 283.4104 0001338  38.9466 321.1633 15.38343122337107
STARLINK-1482,45773,53.1556,0.0001229,15.41269404,441.5235551093165,443.2000337129839,1 45773U 20038AV  26199.68621942  .00028479  00000+0  68129-3 0  9992,2 45773  53.1556 297.3921 0001229  68.0786 292.0350 15.41269404336970
STARLINK-1496,45780,53.0417,0.0006209,15.73767275,343.9649869199593,352.31767935404787,1 45780U 20038BC  26199.57962639  .00046286  00000+0  32408-3 0  9996,2 45780  53.0417 259.3233 0006209  10.1761 349.9381 15.73767275337455
STARLINK-1513,45786,53.1594,0.0001631,15.31701359,469.6188929431728,471.852995297545,1 45786U 20038BJ  26198.31379529  .00009916  00000+0  33085-3 0  9994,2 45786  53.1594 308.0647 0001631  53.7914 306.3238 15.31701359336706
STARLINK-1522,46027,53.0605,0.0001491,15.14704851,520.8459608915673,522.9035443962057,1 46027U 20055A   26198.89822547  .00009910  00000+0  54449-3 0  9999,2 46027  53.0605 256.9706 0001491  60.2526 299.8615 15.14704851328583
STARLINK-1523,46028,53.1589,0.0004787,15.3319317,463.0161175125513,469.56897435983046,1 46028U 20055B   26199.30238625  .00021297  00000+0  66427-3 0  9996,2 46028  53.1589 239.5389 0004787  17.1989 342.9175 15.33193170328909
STARLINK-1526,46029,53.1587,0.0001189,15.31703326,469.9157503147744,471.5444109065438,1 46029U 20055C   26199.50563914  .00000039  00000+0  13010-4 0  9993,2 46029  53.1587 238.7427 0001189  82.2522 277.8614 15.31703326328925
STARLINK-1555,46032,53.1593,0.0001241,15.31695787,469.90260679455787,471.6025011818574,1 46032U 20055F   26199.81791880  .00001169  00000+0  49443-4 0  9990,2 46032  53.1593 237.2939 0001241  95.3334 264.7808 15.31695787328979
STARLINK-1556,46033,53.1581,0.0001018,15.31707547,470.0202847158271,471.41471149164045,1 46033U 20055G   26199.53826567  .00000346  00000+0  22916-4 0  9993,2 46033  53.1581 238.5876 0001018  71.2029 288.9083 15.31707547328901
STARLINK-1557,46034,53.1573,4.97e-05,15.31712552,470.36219129526125,471.0429659493766,1 46034U 20055H   26199.80860345  .00000707  00000+0  34531-4 0  9993,2 46034  53.1573 237.3919 0000497  43.5058 316.5983 15.31712552328945
STARLINK-1558,46035,53.157,0.0001536,15.31672755,469.7692123753868,471.8732123382224,1 46035U 20055J   26199.82260353  .00004888  00000+0  16933-3 0  9998,2 46035  53.1570 237.3988 0001536 120.0038 240.1116 15.31672755328976
STARLINK-1560,46036,53.1583,0.000112,15.31705926,469.9552579399833,471.4894024299447,1 46036U 20055K   26199.54294000  .00000712  00000+0  34690-4 0  9997,2 46036  53.1583 238.6553 0001120  87.8044 272.3085 15.31705926328934
STARLINK-1569,46039,53.1593,0.0001021,15.31705292,470.02495136386824,471.4234888250121,1 46039U 20055N   26199.48699838  .00001003  00000+0  44057-4 0  9993,2 46039  53.1593 238.8226 0001021  74.7308 285.3806 15.31705292328914
STARLINK-1582,46043,53.1595,0.0001304,15.3169638,469.85769131120105,471.64388124586185,1 46043U 20055S   26199.82181363  .00000403  00000+0  24757-4 0  9993,2 46043  53.1595 236.5714 0001304  89.7144 270.4007 15.31696380328977
STARLINK-1591,46045,53.1587,0.0001087,15.31714445,469.9524675218863,471.44140401952154,1 46045U 20055U   26199.25862088  .00002567  00000+0  94409-4 0  9996,2 46045  53.1587 239.8891 0001087  74.3112 285.8009 15.31714445328868
STARLINK-1524,46047,53.1583,0.000114,15.31701587,469.95449302716406,471.51603590346167,1 46047U 20055W   26199.46488244  .00000280  00000+0  20784-4 0  9994,2 46047  53.1583 225.5318 0001140  82.6752 277.4379 15.31701587329102
STARLINK-1527,46048,53.1565,0.0001701,15.31691719,469.59968239109185,471.9296787428202,1 46048U 20055X   26199.46024419 -.00000916  00000+0 -17765-4 0  9998,2 46048  53.1565 225.5306 0001701  93.4426 266.6770 15.31691719329077
STARLINK-1540,46051,53.1589,0.0001024,15.31700846,470.0361485987605,471.4387980909014,1 46051U 20055AA  26199.31576940  .00000223  00000+0  18936-4 0  9997,2 46051  53.1589 226.4172 0001024  73.0654 287.0460 15.31700846329090
STARLINK-1541,46052,53.1449,0.0006833,16.12578882,235.25614815099198,244.3001910217481,1 46052U 20055AB  26199.85806793  .00769861  35113-3  67056-3 0  9992,2 46052  53.1449 188.7553 0006833  33.9015 326.2456 16.12578882329621
STARLINK-1543,46053,53.1605,0.0001335,15.31711842,469.7903747009932,471.61901543357635,1 46053U 20055AC  26199.28776918  .00000678  00000+0  33603-4 0  9994,2 46053  53.1605 226.3558 0001335  92.5348 267.5806 15.31711842329083
STARLINK-1548,46054,53.1589,9.35e-05,15.31712735,470.06166666675017,471.3423995659432,1 46054U 20055AD  26199.30177644  .00001992  00000+0  75893-4 0  9996,2 46054  53.1589 226.3635 0000935  73.5670 286.5435 15.31712735329084
STARLINK-1554,46055,53.1589,0.0001213,15.31705359,469.8932535303129,471.554787213855,1 46055U 20055AE  26199.47886023  .00001888  00000+0  72575-4 0  9991,2 46055  53.1589 225.4826 0001213  83.9554 276.1586 15.31705359329113
STARLINK-1564,46058,53.159,8.46e-05,15.30196593,474.64544768039923,475.80503657176723,1 46058U 20055AH  26199.31250259 -.00001448  00000+0 -36770-4 0  9994,2 46058  53.1590 227.6377 0000846  81.2311 278.8786 15.30196593329064
STARLINK-1570,46059,53.1585,0.0001153,15.31704748,469.93616783562356,471.51551560692496,1 46059U 20055AJ  26199.31106625  .00001132  00000+0  48235-4 0  9999,2 46059  53.1585 226.1447 0001153  75.6964 284.4166 15.31704748329045
STARLINK-1572,46060,53.1601,0.0001282,15.30202157,474.33003010405173,476.08722792333083,1 46060U 20055AK  26199.48943723  .00000520  00000+0  29675-4 0  9994,2 46060  53.1601 226.5624 0001282  80.7995 279.3151 15.30202157329066
